satname,norad_id,inclination_deg,eccentricity,mean_motion_rev_per_day,perigee_km,apogee_km,l1,l2
STARLINK-1296,45412,53.1599,0.0002564,15.33516723,463.5751207249723,467.08445049263355,1 45412U 20019BE  26103.34480623  .00032692  00000+0  10020-2 0  9996,2 45412  53.1599 327.9329 0002564 196.6339 163.4579 15.33516723335281
STARLINK-1309,45414,53.0648,0.0005964,15.61918259,378.0845559732961,386.1481861943257,1 45414U 20019BG  26103.00662371  .00082305  00000+0  92454-3 0  9991,2 45414  53.0648 316.9595 0005964 174.7622 185.3455 15.61918259335387
STARLINK-1316,45415,53.1602,0.0002443,15.33816695,462.7658540556786,466.10913595393777,1 45415U 20019BH  26103.91063631  .00029648  00000+0  90157-3 0  9995,2 45415  53.1602 325.3340 0002443 203.0130 157.0763 15.33816695335399
STARLINK-1286,45417,53.0487,0.0003476,15.5380671,403.2655606905473,407.9816310567994,1 45417U 20019BK  26103.88856641  .00027151  00000+0  42131-3 0  9990,2 45417  53.0487 321.2308 0003476 161.6714 198.4422 15.53806710335697
STARLINK-1308,45419,53.0526,0.0006075,15.5745528,390.9101155835997,399.13950718443175,1 45419U 20019BM  26103.92716049  .00060476  00000+0  80891-3 0  9996,2 45419  53.0526 342.0253 0006075 169.4539 190.6601 15.57455280335152
STARLINK-1329,45531,53.0444,0.0001413,15.67015753,366.49454748314565,368.40084971896977,1 45531U 20025A   26103.87882008  .00034873  00000+0  32529-3 0  9998,2 45531  53.0444 269.2152 0001413 325.1027  34.9896 15.67015753330955
STARLINK-1338,45532,53.0465,0.0001444,15.61127912,383.42132913156365,385.37434919311363,1 45532U 20025B   26102.76996096  .00088157  00000+0  10204-2 0  9998,2 45532  53.0465 279.2729 0001444 166.5534 193.5518 15.61127912330716
STARLINK-1350,45535,53.0713,0.0001021,15.37039043,454.17302325026594,455.5683234171611,1 45535U 20025E   26103.71853099  .00005957  00000+0  17242-3 0  9999,2 45535  53.0713 228.5163 0001021 115.6290 244.4819 15.37039043331541
STARLINK-1362,45538,53.1608,0.0001531,15.32194956,468.21661710462286,470.313291583042,1 45538U 20025H   26103.91027455 -.00153177  00000+0 -49483-2 0  9994,2 45538  53.1608 297.2331 0001531 113.9179 246.1983 15.32194956330574
STARLINK-1368,45540,53.1598,9.2e-05,15.32693084,467.15143754890596,468.41108650911883,1 45540U 20025K   26103.79357507  .00023982  00000+0  75826-3 0  9996,2 45540  53.1598 298.1518 0000920  73.7625 286.3479 15.32693084330541
STARLINK-1371,45542,53.0494,0.000283,15.53279713,405.23766761392835,409.0781445307657,1 45542U 20025M   26103.88697711  .00076131  00000+0  11835-2 0  9995,2 45542  53.0494 280.5086 0002830 267.1928  92.8758 15.53279713330798
STARLINK-1372,45543,53.1588,0.0001965,15.33124593,465.1516757950558,467.8416168180547,1 45543U 20025N   26103.83434081  .00091557  00000+0  27985-2 0  9992,2 45543  53.1588 297.6446 0001965 276.7454  83.3324 15.33124593329651
STARLINK-1373,45544,53.0471,0.0001896,15.57446843,393.7650762897829,396.33346852427894,1 45544U 20025P   26103.74797557  .00067650  00000+0  90412-3 0  9996,2 45544  53.0471 279.7311 0001896 194.4152 165.6806 15.57446843330795
STARLINK-1327,45555,53.0425,0.0004181,15.59985403,384.87049019558344,390.5280824982274,1 45555U 20025AA  26103.82413838  .00073130  00000+0  88680-3 0  9998,2 45555  53.0425 256.1936 0004181 214.7916 145.2823 15.59985403331125
STARLINK-1356,45564,53.0471,0.0002626,15.50575686,413.26024555705044,416.82802428911145,1 45564U 20025AK  26103.73249713  .00058648  00000+0  10084-2 0  9996,2 45564  53.0471 266.3057 0002626 196.5753 163.5170 15.50575686330970
STARLINK-1357,45565,53.0469,0.0006063,15.63511307,373.427658544726,381.6195726071737,1 45565U 20025AL  26103.58019915  .00080765  00000+0  85286-3 0  9991,2 45565  53.0469 228.2231 0006063 300.4321  59.6094 15.63511307331509
STARLINK-1361,45567,53.0467,0.0003288,15.53773276,403.49037807896366,407.9514430409472,1 45567U 20025AN  26103.94351237  .00062186  00000+0  95254-3 0  9992,2 45567  53.0467 264.5616 0003288 157.7122 202.4031 15.53773276331027
STARLINK-1363,45568,53.0367,0.0001042,15.87223437,309.37447715908456,310.76829978724163,1 45568U 20025AP  26104.00002315  .00108717  00000+0  40482-3 0  9995,2 45568  53.0367 220.0897 0001042 302.1705 294.8399 15.87223437  5985
STARLINK-1366,45569,53.0377,0.0001276,15.8517122,314.9885143975898,316.6968180084041,1 45569U 20025AQ  26104.00002315  .00070904  00000+0  29403-3 0  9992,2 45569  53.0377 221.2167 0001276 251.9335  89.7322 15.85171220  5920
STARLINK-1376,45570,53.1567,0.000261,15.33609324,463.26823259090634,466.8403784523889,1 45570U 20025AR  26103.75973844  .00054958  00000+0  16669-2 0  9999,2 45570  53.1567 274.5448 0002610 281.5448  78.5261 15.33609324330871
STARLINK-1320,45572,53.0462,0.0002946,15.75031416,342.5612838479792,346.52228618811114,1 45572U 20025AT  26103.90679123  .00056248  00000+0  37190-3 0  9998,2 45572  53.0462 171.1571 0002946 106.3302 253.8041 15.75031416332345
STARLINK-1321,45573,53.0456,0.0003039,15.54916126,400.3358475800933,404.4570558120349,1 45573U 20025AU  26103.67173856  .00062704  00000+0  92119-3 0  9991,2 45573  53.0456 250.2360 0003039 270.4369  89.6293 15.54916126330893
STARLINK-1331,45578,53.0495,0.0004733,15.54601273,400.1022674943961,406.521587048951,1 45578U 20025AZ  26103.93989110  .00061637  00000+0  91604-3 0  9995,2 45578  53.0495 255.6732 0004733 252.9057 107.1435 15.54601273331152
STARLINK-1333,45580,53.1571,0.0001076,15.30668915,473.0780611217706,474.55260126344365,1 45580U 20025BB  26103.76638870  .00030139  00000+0  10109-2 0  9996,2 45580  53.1571 274.8694 0001076  67.7216 292.3899 15.30668915330876
STARLINK-1335,45581,53.1581,3.92e-05,15.32115523,469.2331953035218,469.77005017154534,1 45581U 20025BC  26103.46053114  .00009782  00000+0  32240-3 0  9997,2 45581  53.1581 273.6361 0000392  69.9950 290.1094 15.32115523330850
STARLINK-1337,45582,53.0492,0.0004987,15.65442584,368.59991773787533,375.33247066377135,1 45582U 20025BD  26103.88642001  .00082860  00000+0  81052-3 0  9996,2 45582  53.0492 249.9330 0004987 265.4579  94.5866 15.65442584331217
STARLINK-1347,45586,53.0374,0.0002575,15.61860043,380.54354710516236,384.0251641032992,1 45586U 20025BH  26103.64685017  .00096122  00000+0  10800-2 0  9996,2 45586  53.0374 219.7465 0002575 310.1719  49.9068 15.61860043331611
STARLINK-1364,45589,53.0439,0.0004646,15.5608566,395.8499275343793,402.1472419197071,1 45589U 20025BL  26103.70303699  .00066767  00000+0  93847-3 0  9994,2 45589  53.0439 254.5010 0004646 214.0621 146.0092 15.56085660331135
STARLINK-1365,45590,53.0493,0.000341,15.51128809,411.1131771268256,415.7450252078215,1 45590U 20025BM  26103.78738759  .00058536  00000+0  98689-3 0  9997,2 45590  53.0493 285.6017 0003410 203.9262 156.1589 15.51128809330720
STARLINK-1443,45660,53.1341,0.0001292,15.28420111,479.6485134375589,481.4207941929053,1 45660U 20035D   26103.86847657  .00026210  00000+0  94398-3 0  9990,2 45660  53.1341 262.2772 0001292 242.2060 117.8808 15.28420111324139
STARLINK-1446,45663,53.0233,0.0003369,15.44455217,430.6846146016669,435.27394475091205,1 45663U 20035G   26103.64348106  .00020302  00000+0  43954-3 0  9992,2 45663  53.0233 193.1475 0003369  26.2762 333.8414 15.44455217325079
STARLINK-1448,45665,53.0463,0.000529,15.60351235,383.063154740551,390.22029062915226,1 45665U 20035J   26103.84588825  .00078682  00000+0  93959-3 0  9994,2 45665  53.0463 242.4713 0005290 252.9466 107.0967 15.60351235324394
STARLINK-1451,45668,53.0518,7.59e-05,15.11946994,529.7384704835813,530.7871655759573,1 45668U 20035M   26103.60506603  .00017230  00000+0  10082-2 0  9992,2 45668  53.0518 268.1965 0000759  98.0109 262.0969 15.11946994324022
STARLINK-1452,45669,53.0283,0.0001457,15.50404242,414.5550804245786,416.53475933603204,1 45669U 20035N   26103.74323525  .00056646  00000+0  98048-3 0  9991,2 45669  53.0283 214.0196 0001457 205.5284 154.5652 15.50404242324799
STARLINK-1453,45670,53.0427,0.0001598,15.60908195,383.95167635887265,386.11318530896824,1 45670U 20035P   26104.00002315  .00064824  00000+0  76050-3 0  9990,2 45670  53.0427 202.2090 0001598 353.7090 247.6857 15.60908195  5750
STARLINK-1454,45671,53.0443,0.0003952,15.58798551,388.457923810739,393.80835492889764,1 45671U 20035Q   26103.65596123  .00081984  00000+0  10380-2 0  9995,2 45671  53.0443 243.8697 0003952 230.1926 129.8738 15.58798551324354
STARLINK-1456,45673,53.0455,0.0005071,15.56565187,394.1706572655894,401.0426164620976,1 45673U 20035S   26103.56344723  .00064848  00000+0  89580-3 0  9993,2 45673  53.0455 238.2254 0005071 308.7025  51.3532 15.56565187324448
STARLINK-1457,45674,53.041,0.0003437,15.91279975,296.40520563660994,300.99486341414286,1 45674U 20035T   26104.00002315  .00139246  18277-4  43534-3 0  9996,2 45674  53.0410 204.0836 0003437 315.5741  89.2280 15.91279975  5770
STARLINK-1458,45675,53.0511,0.0005425,15.4847521,417.4973247772259,424.874590186093,1 45675U 20035U   26103.66356404  .00033743  00000+0  62990-3 0  9991,2 45675  53.0511 248.8235 0005425 243.9052 116.1397 15.48475210324269
STARLINK-1460,45676,53.1566,0.0002076,15.3064237,472.4720687093086,475.3170322090591,1 45676U 20035V   26103.86813547  .00026707  00000+0  89825-3 0  9998,2 45676  53.1566 261.5357 0002076  61.4554 298.6656 15.30642370324108
STARLINK-1392,45677,53.1548,0.0001092,15.33429164,464.84295665779155,466.337626698295,1 45677U 20035W   26103.73540713  .00015603  00000+0  48658-3 0  9999,2 45677  53.1548 262.0106 0001092  87.2981 272.8146 15.33429164324121
STARLINK-1394,45679,53.045,0.0006204,15.56537897,393.48211329458536,401.88955426674056,1 45679U 20035Y   26103.56035245  .00063712  00000+0  88102-3 0  9993,2 45679  53.0450 228.4613 0006204 309.2721  50.7739 15.56537897324570
STARLINK-1402,45685,53.044,0.0006624,15.50738164,410.0701357926364,419.06911352898624,1 45685U 20035AE  26103.58993076  .00054232  00000+0  92763-3 0  9992,2 45685  53.0440 216.4910 0006624 341.9744  18.1029 15.50738164324751
